{
  "type": "FeatureCollection",
  "features": [
    {
      "type": "Feature",
      "properties": {
        "norad_id": 46277,
        "name": "NEMO-HD",
        "group": "resource",
        "lat": 6.227494651886509,
        "lon": 51.67186041131521,
        "alt_km": 446.2842313087858,
        "timestamp": "2025-12-19T10:50:00.849500+00:00",
        "meta_object_name": "NEMO-HD",
        "meta_object_id": "2020-061F",
        "meta_epoch": "2025-12-18T22:20:03.883200",
        "meta_mean_motion": 15.40451562,
        "meta_eccentricity": 0.00014944,
        "meta_inclination": 97.2208,
        "meta_ra_of_asc_node": 51.9503,
        "meta_arg_of_pericenter": 51.9701,
        "meta_mean_anomaly": 308.1681,
        "meta_ephemeris_type": 0,
        "meta_classification_type": "U",
        "meta_norad_cat_id": 46277,
        "meta_element_set_no": 999,
        "meta_rev_at_epoch": 29419,
        "meta_bstar": 0.00021374673,
        "meta_mean_motion_dot": 8.574e-05,
        "meta_mean_motion_ddot": 0,
        "tle_line1": "1 46277U 20061F   25352.93060050  .00008574  00000+0  21375-3 0  9999",
        "tle_line2": "2 46277  97.2208  51.9503 0001494  51.9701 308.1681 15.40451562294195"
      },
      "geometry": {
        "type": "Point",
        "coordinates": [
          51.67186041131521,
          6.227494651886509
        ]
      }
    },
    {
      "type": "Feature",
      "properties": {
        "norad_id": 46984,
        "name": "SENTINEL-6A",
        "group": "resource",
        "lat": 65.70190962102464,
        "lon": -131.60462192695502,
        "alt_km": 1336.3978535846272,
        "timestamp": "2025-12-19T10:50:00.849510+00:00",
        "meta_object_name": "SENTINEL-6A",
        "meta_object_id": "2020-086A",
        "meta_epoch": "2025-12-18T19:23:45.140640",
        "meta_mean_motion": 12.80930819,
        "meta_eccentricity": 0.00077124,
        "meta_inclination": 66.0392,
        "meta_ra_of_asc_node": 149.7036,
        "meta_arg_of_pericenter": 269.2651,
        "meta_mean_anomaly": 90.748,
        "meta_ephemeris_type": 0,
        "meta_classification_type": "U",
        "meta_norad_cat_id": 46984,
        "meta_element_set_no": 999,
        "meta_rev_at_epoch": 23722,
        "meta_bstar": 1.538222e-06,
        "meta_mean_motion_dot": -6.1e-07,
        "meta_mean_motion_ddot": 0,
        "tle_line1": "1 46984U 20086A   25352.80816135 -.00000061  00000+0  15382-5 0  9997",
        "tle_line2": "2 46984  66.0392 149.7036 0007712 269.2651  90.7480 12.80930819237222"
      },
      "geometry": {
        "type": "Point",
        "coordinates": [
          -131.60462192695502,
          65.70190962102464
        ]
      }
    },
    {
      "type": "Feature",
      "properties": {
        "norad_id": 48079,
        "name": "GAOFEN-12 02",
        "group": "resource",
        "lat": 70.67490390606294,
        "lon": -168.97871598393792,
        "alt_km": 617.9728700900259,
        "timestamp": "2025-12-19T10:50:00.849521+00:00",
        "meta_object_name": "GAOFEN-12 02",
        "meta_object_id": "2021-026A",
        "meta_epoch": "2025-12-18T22:59:47.394816",
        "meta_mean_motion": 14.80682456,
        "meta_eccentricity": 0.0003598,
        "meta_inclination": 97.9853,
        "meta_ra_of_asc_node": 346.9346,
        "meta_arg_of_pericenter": 88.7178,
        "meta_mean_anomaly": 271.4447,
        "meta_ephemeris_type": 0,
        "meta_classification_type": "U",
        "meta_norad_cat_id": 48079,
        "meta_element_set_no": 999,
        "meta_rev_at_epoch": 25509,
        "meta_bstar": 5.85576e-05,
        "meta_mean_motion_dot": 3.97e-06,
        "meta_mean_motion_ddot": 0,
        "tle_line1": "1 48079U 21026A   25352.95818744  .00000397  00000+0  58558-4 0  9995",
        "tle_line2": "2 48079  97.9853 346.9346 0003598  88.7178 271.4447 14.80682456255094"
      },
      "geometry": {
        "type": "Point",
        "coordinates": [
          -168.97871598393792,
          70.67490390606294
        ]
      }
    },
    {
      "type": "Feature",
      "properties": {
        "norad_id": 48268,
        "name": "PLEIADES NEO 3",
        "group": "resource",
        "lat": -18.437318927661014,
        "lon": -116.8551642711853,
        "alt_km": 629.4613247088164,
        "timestamp": "2025-12-19T10:50:00.849531+00:00",
        "meta_object_name": "PLEIADES NEO 3",
        "meta_object_id": "2021-034A",
        "meta_epoch": "2025-12-18T22:35:42.322848",
        "meta_mean_motion": 14.81670918,
        "meta_eccentricity": 0.00013132,
        "meta_inclination": 97.895,
        "meta_ra_of_asc_node": 65.2938,
        "meta_arg_of_pericenter": 88.9953,
        "meta_mean_anomaly": 271.141,
        "meta_ephemeris_type": 0,
        "meta_classification_type": "U",
        "meta_norad_cat_id": 48268,
        "meta_element_set_no": 999,
        "meta_rev_at_epoch": 25096,
        "meta_bstar": 7.2454743e-05,
        "meta_mean_motion_dot": 5.18e-06,
        "meta_mean_motion_ddot": 0,
        "tle_line1": "1 48268U 21034A   25352.94146207  .00000518  00000+0  72455-4 0  9998",
        "tle_line2": "2 48268  97.8950  65.2938 0001313  88.9953 271.1410 14.81670918250964"
      },
      "geometry": {
        "type": "Point",
        "coordinates": [
          -116.8551642711853,
          -18.437318927661014
        ]
      }
    },
    {
      "type": "Feature",
      "properties": {
        "norad_id": 49070,
        "name": "PLEIADES NEO 4",
        "group": "resource",
        "lat": 18.252623616084012,
        "lon": 63.16922083058708,
        "alt_km": 624.1290475250671,
        "timestamp": "2025-12-19T10:50:00.849541+00:00",
        "meta_object_name": "PLEIADES NEO 4",
        "meta_object_id": "2021-073E",
        "meta_epoch": "2025-12-18T23:24:18.654624",
        "meta_mean_motion": 14.81674118,
        "meta_eccentricity": 0.00013025,
        "meta_inclination": 97.8951,
        "meta_ra_of_asc_node": 65.323,
        "meta_arg_of_pericenter": 91.754,
        "meta_mean_anomaly": 268.3822,
        "meta_ephemeris_type": 0,
        "meta_classification_type": "U",
        "meta_norad_cat_id": 49070,
        "meta_element_set_no": 999,
        "meta_rev_at_epoch": 23468,
        "meta_bstar": 6.0813433e-05,
        "meta_mean_motion_dot": 4.27e-06,
        "meta_mean_motion_ddot": 0,
        "tle_line1": "1 49070U 21073E   25352.97521591  .00000427  00000+0  60813-4 0  9993",
        "tle_line2": "2 49070  97.8951  65.3230 0001302  91.7540 268.3822 14.81674118234687"
      },
      "geometry": {
        "type": "Point",
        "coordinates": [
          63.16922083058708,
          18.252623616084012
        ]
      }
    },
    {
      "type": "Feature",
      "properties": {
        "norad_id": 49260,
        "name": "LANDSAT 9",
        "group": "resource",
        "lat": 17.136062240531682,
        "lon": -115.98411030282408,
        "alt_km": 702.8245734112843,
        "timestamp": "2025-12-19T10:50:00.849551+00:00",
        "meta_object_name": "LANDSAT 9",
        "meta_object_id": "2021-088A",
        "meta_epoch": "2025-12-18T19:15:26.256672",
        "meta_mean_motion": 14.57104014,
        "meta_eccentricity": 0.00011198,
        "meta_inclination": 98.2088,
        "meta_ra_of_asc_node": 60.8254,
        "meta_arg_of_pericenter": 90.791,
        "meta_mean_anomaly": 269.3417,
        "meta_ephemeris_type": 0,
        "meta_classification_type": "U",
        "meta_norad_cat_id": 49260,
        "meta_element_set_no": 999,
        "meta_rev_at_epoch": 22473,
        "meta_bstar": 8.4274008e-05,
        "meta_mean_motion_dot": 3.34e-06,
        "meta_mean_motion_ddot": 0,
        "tle_line1": "1 49260U 21088A   25352.80238723  .00000334  00000+0  84274-4 0  9998",
        "tle_line2": "2 49260  98.2088  60.8254 0001119  90.7910 269.3417 14.57104014224738"
      },
      "geometry": {
        "type": "Point",
        "coordinates": [
          -115.98411030282408,
          17.136062240531682
        ]
      }
    },
    {
      "type": "Feature",
      "properties": {
        "norad_id": 51444,
        "name": "CSG-2",
        "group": "resource",
        "lat": 61.7057100484187,
        "lon": 159.76393766748578,
        "alt_km": 615.5732326678835,
        "timestamp": "2025-12-19T10:50:00.849562+00:00",
        "meta_object_name": "CSG-2",
        "meta_object_id": "2022-008A",
        "meta_epoch": "2025-12-18T23:12:35.142624",
        "meta_mean_motion": 14.82150145,
        "meta_eccentricity": 0.00014726,
        "meta_inclination": 97.8799,
        "meta_ra_of_asc_node": 174.1958,
        "meta_arg_of_pericenter": 83.4994,
        "meta_mean_anomaly": 276.6387,
        "meta_ephemeris_type": 0,
        "meta_classification_type": "U",
        "meta_norad_cat_id": 51444,
        "meta_element_set_no": 999,
        "meta_rev_at_epoch": 20989,
        "meta_bstar": 3.4827533e-05,
        "meta_mean_motion_dot": 2.25e-06,
        "meta_mean_motion_ddot": 0,
        "tle_line1": "1 51444U 22008A   25352.96707341  .00000225  00000+0  34828-4 0  9991",
        "tle_line2": "2 51444  97.8799 174.1958 0001472  83.4994 276.6387 14.82150145209893"
      },
      "geometry": {
        "type": "Point",
        "coordinates": [
          159.76393766748578,
          61.7057100484187
        ]
      }
    }
  ]
}